[{"OBJECT_NAME":"OBJECT D","OBJECT_ID":"2022-023D","EPOCH":"2026-03-09T23:24:15.634080","MEAN_MOTION":15.18234448,"ECCENTRICITY":0.01133038,"INCLINATION":63.4606,"RA_OF_ASC_NODE":248.8448,"ARG_OF_PERICENTER":353.4959,"MEAN_ANOMALY":6.4675,"EPHEMERIS_TYPE":0,"CLASSIFICATION_TYPE":"U","NORAD_CAT_ID":51949,"ELEMENT_SET_NO":999,"REV_AT_EPOCH":22265,"BSTAR":0.0002367106,"MEAN_MOTION_DOT":5.513e-5,"MEAN_MOTION_DDOT":0},{"OBJECT_NAME":"STARLINK-30792","OBJECT_ID":"2023-170Q","EPOCH":"2026-03-09T08:39:02.435904","MEAN_MOTION":15.03789183,"ECCENTRICITY":0.00011754,"INCLINATION":42.9983,"RA_OF_ASC_NODE":197.3811,"ARG_OF_PERICENTER":295.0608,"MEAN_ANOMALY":65.0113,"EPHEMERIS_TYPE":0,"CLASSIFICATION_TYPE":"U","NORAD_CAT_ID":58220,"ELEMENT_SET_NO":999,"REV_AT_EPOCH":13023,"BSTAR":0.00051104631,"MEAN_MOTION_DOT":6.939e-5,"MEAN_MOTION_DDOT":0}]
